OBJECT_NAME,OBJECT_ID,EPOCH,MEAN_MOTION,ECCENTRICITY,INCLINATION,RA_OF_ASC_NODE,ARG_OF_PERICENTER,MEAN_ANOMALY,EPHEMERIS_TYPE,CLASSIFICATION_TYPE,NORAD_CAT_ID,ELEMENT_SET_NO,REV_AT_EPOCH,BSTAR,MEAN_MOTION_DOT,MEAN_MOTION_DDOT
STARLINK-2349,2021-021AF,2023-12-21T02:30:30.449376,15.06405905,0.0001331,53.0551,305.9848,117.5021,242.6103,0,U,47889,999,15369,3.30E-04,4.64E-05,0
STARLINK-2351,2021-021AH,2023-12-21T04:15:20.232864,15.06407917,0.0001569,53.0547,315.6631,93.2414,266.8754,0,U,47891,999,15356,3.99E-04,5.67E-05,0
STARLINK-2352,2021-021AJ,2023-12-21T02:22:23.505888,15.06398623,0.0001318,53.0537,275.2468,91.0072,269.1067,0,U,47892,999,15413,2.53E-04,3.49E-05,0
STARLINK-2354,2021-021AL,2023-12-21T03:12:58.255776,15.06406265,0.0001443,53.0543,305.858,98.1494,261.9659,0,U,47894,999,15370,3.97E-04,5.64E-05,0
STARLINK-2355,2021-021AM,2023-12-21T03:28:53.846688,15.06400209,0.0001407,53.0535,305.8084,88.8163,271.2987,0,U,47895,999,15370,1.79E-04,2.39E-05,0
STARLINK-2356,2021-021AN,2023-12-21T03:18:56.338848,15.06408092,0.0001389,53.0541,320.8361,86.0628,274.052,0,U,47896,999,15348,1.53E-04,2.00E-05,0
STARLINK-2357,2021-021AP,2023-12-20T20:58:05.297952,15.06723062,0.000134,53.0536,306.9708,88.8045,271.3098,0,U,47897,999,15414,7.43E-04,1.09E-04,0
STARLINK-2358,2021-021AQ,2023-12-21T03:18:17.172864,15.0640306,0.000156,53.0564,305.8314,91.8591,268.2577,0,U,47898,999,15370,5.24E-04,7.53E-05,0
STARLINK-2360,2021-021AS,2023-12-21T03:48:45.878976,15.06403615,0.0001363,53.0555,305.7412,104.9378,255.1762,0,U,47900,999,15370,1.52E-04,1.98E-05,0
STARLINK-2361,2021-021AT,2023-12-21T01:22:51.195936,15.06405825,0.000156,53.0551,296.2833,94.5343,265.5824,0,U,47901,999,15382,4.51E-04,6.44E-05,0
STARLINK-2362,2021-021AU,2023-12-21T04:10:01.569792,15.06404543,0.0001324,53.0538,315.6871,92.5243,267.5897,0,U,47902,999,15355,2.55E-04,3.52E-05,0
STARLINK-2363,2021-021AV,2023-12-21T03:07:37.850880,15.06399186,0.0001481,53.0555,295.8586,83.3276,276.7881,0,U,47903,999,15384,1.13E-04,1.40E-05,0
STARLINK-2364,2021-021AW,2023-12-21T01:28:08.801472,15.06407712,0.000147,53.0551,296.176,102.2059,257.9095,0,U,47904,999,15383,6.21E-04,8.98E-05,0
STARLINK-2365,2021-021AX,2023-12-21T01:21:27.901152,15.06408352,0.0001331,53.054,296.1951,104.2294,255.8843,0,U,47905,999,15383,6.15E-04,8.89E-05,0
STARLINK-2367,2021-021AZ,2023-12-21T03:11:38.982048,15.06400488,0.000162,53.0562,315.8555,106.1431,253.9737,0,U,47907,999,15355,2.82E-04,3.92E-05,0
STARLINK-2368,2021-021BA,2023-12-21T03:22:15.591936,15.06397831,0.0001593,53.0552,315.8322,111.6268,248.4891,0,U,47908,999,15356,1.14E-04,1.42E-05,0
STARLINK-2369,2021-021BB,2023-12-21T03:44:48.853536,15.06416717,0.0001428,53.0543,305.7577,95.6972,264.418,0,U,47909,999,15370,8.46E-04,1.23E-04,0
STARLINK-2370,2021-021BC,2023-12-21T03:23:36.859776,15.06401671,0.0001748,53.056,305.9801,75.662,284.4563,0,U,47910,999,15370,2.52E-04,3.48E-05,0
STARLINK-2371,2021-021BD,2023-12-21T03:24:17.089344,15.06410256,0.0001504,53.0551,321.0636,107.7884,252.3269,0,U,47911,999,15380,2.44E-04,3.36E-05,0
STARLINK-2372,2021-021BE,2023-12-21T02:50:23.733600,15.06390309,0.0001381,53.0545,305.919,108.2584,251.8555,0,U,47912,999,15369,2.75E-04,3.81E-05,0
STARLINK-2374,2021-021BF,2023-12-21T03:01:06.834720,15.06399714,0.0001944,53.0561,316.3589,113.0954,247.024,0,U,47913,999,15354,1.43E-04,1.85E-05,0
STARLINK-2375,2021-021BG,2023-12-21T03:27:34.542720,15.06394411,0.000107,53.0546,315.8066,88.611,271.5001,0,U,47914,999,15355,2.21E-04,3.02E-05,0
STARLINK-2376,2021-021BH,2023-12-21T03:25:35.239872,15.06410893,0.0001459,53.0539,310.8137,95.8447,264.2708,0,U,47915,999,15362,3.37E-04,4.75E-05,0
STARLINK-2378,2021-021BJ,2023-12-21T02:47:45.119616,15.06413094,0.0001299,53.0544,295.9304,118.283,241.829,0,U,47916,999,15383,8.03E-04,1.17E-04,0
STARLINK-2397,2021-021BK,2023-12-21T02:57:03.002688,15.06399963,0.0001631,53.0549,305.8996,65.8485,294.2675,0,U,47917,999,15369,7.77E-05,8.76E-06,0
STARLINK-2398,2021-021BL,2023-12-21T03:07:40.054944,15.06412254,0.0001358,53.054,305.8748,114.3982,245.7149,0,U,47918,999,15369,1.45E-03,2.14E-04,0
STARLINK-2405,2021-021BM,2023-12-21T04:20:38.969376,15.06397345,0.0001477,53.0537,315.643,94.8467,265.2691,0,U,47919,999,15354,1.59E-04,2.09E-05,0
CAS500-1,2021-022A,2023-12-21T11:55:46.770240,15.20323838,0.0002286,97.3878,251.7803,156.0754,204.0588,0,U,47932,999,15270,6.13E-04,1.33E-04,0
GRUS-1C,2021-022B,2023-12-21T11:24:48.523968,14.95363583,0.0019651,97.6455,247.9601,129.8594,230.4359,0,U,47933,999,14990,2.26E-04,2.45E-05,0
GRUS-1B,2021-022C,2023-12-21T10:47:18.708576,14.95448067,0.0019869,97.6454,247.9418,128.7291,231.571,0,U,47934,999,14989,2.59E-04,2.82E-05,0
