STARLINK-2349           
1 47889U 21021AF  23355.10451909  .00004636  00000+0  32986-3 0  9998
2 47889  53.0551 305.9848 0001331 117.5021 242.6103 15.06405905153696
STARLINK-2351           
1 47891U 21021AH  23355.17731751  .00005666  00000+0  39891-3 0  9990
2 47891  53.0547 315.6631 0001569  93.2414 266.8754 15.06407917153562
STARLINK-2352           
1 47892U 21021AJ  23355.09888317  .00003485  00000+0  25275-3 0  9991
2 47892  53.0537 275.2468 0001318  91.0072 269.1067 15.06398623154139
STARLINK-2354           
1 47894U 21021AL  23355.13400759  .00005644  00000+0  39739-3 0  9997
2 47894  53.0543 305.8580 0001443  98.1494 261.9659 15.06406265153709
STARLINK-2355           
1 47895U 21021AM  23355.14506767  .00002385  00000+0  17892-3 0  9990
2 47895  53.0535 305.8084 0001407  88.8163 271.2987 15.06400209153709
STARLINK-2356           
1 47896U 21021AN  23355.13815207  .00002001  00000+0  15315-3 0  9995
2 47896  53.0541 320.8361 0001389  86.0628 274.0520 15.06408092153484
STARLINK-2357           
1 47897U 21021AP  23354.87367243  .00010892  00000+0  74255-3 0  9993
2 47897  53.0536 306.9708 0001340  88.8045 271.3098 15.06723062154140
STARLINK-2358           
1 47898U 21021AQ  23355.13769876  .00007528  00000+0  52370-3 0  9998
2 47898  53.0564 305.8314 0001560  91.8591 268.2577 15.06403060153708
STARLINK-2360           
1 47900U 21021AS  23355.15886434  .00001984  00000+0  15205-3 0  9990
2 47900  53.0555 305.7412 0001363 104.9378 255.1762 15.06403615153707
STARLINK-2361           
1 47901U 21021AT  23355.05753699  .00006441  00000+0  45085-3 0  9998
2 47901  53.0551 296.2833 0001560  94.5343 265.5824 15.06405825153822
STARLINK-2362           
1 47902U 21021AU  23355.17362928  .00003515  00000+0  25469-3 0  9996
2 47902  53.0538 315.6871 0001324  92.5243 267.5897 15.06404543153559
STARLINK-2363           
1 47903U 21021AV  23355.13029920  .00001397  00000+0  11267-3 0  9992
2 47903  53.0555 295.8586 0001481  83.3276 276.7881 15.06399186153842
STARLINK-2364           
1 47904U 21021AW  23355.06121298  .00008976  00000+0  62059-3 0  9991
2 47904  53.0551 296.1760 0001470 102.2059 257.9095 15.06407712153837
STARLINK-2365           
1 47905U 21021AX  23355.05657293  .00008892  00000+0  61495-3 0  9990
2 47905  53.0540 296.1951 0001331 104.2294 255.8843 15.06408352153836
STARLINK-2367           
1 47907U 21021AZ  23355.13309007  .00003919  00000+0  28181-3 0  9998
2 47907  53.0562 315.8555 0001620 106.1431 253.9737 15.06400488153558
STARLINK-2368           
1 47908U 21021BA  23355.14045824  .00001419  00000+0  11415-3 0  9999
2 47908  53.0552 315.8322 0001593 111.6268 248.4891 15.06397831153566
STARLINK-2369           
1 47909U 21021BB  23355.15612099  .00012344  00000+0  84574-3 0  9990
2 47909  53.0543 305.7577 0001428  95.6972 264.4180 15.06416717153707
STARLINK-2370           
1 47910U 21021BC  23355.14139884  .00003479  00000+0  25235-3 0  9995
2 47910  53.0560 305.9801 0001748  75.6620 284.4563 15.06401671153703
STARLINK-2371           
1 47911U 21021BD  23355.14186446  .00003357  00000+0  24411-3 0  9992
2 47911  53.0551 321.0636 0001504 107.7884 252.3269 15.06410256153805
STARLINK-2372           
1 47912U 21021BE  23355.11833025  .00003810  00000+0  27462-3 0  9995
2 47912  53.0545 305.9190 0001381 108.2584 251.8555 15.06390309153696
STARLINK-2374           
1 47913U 21021BF  23355.12577355  .00001848  00000+0  14295-3 0  9997
2 47913  53.0561 316.3589 0001944 113.0954 247.0240 15.06399714153544
STARLINK-2375           
1 47914U 21021BG  23355.14414980  .00003017  00000+0  22139-3 0  9990
2 47914  53.0546 315.8066 0001070  88.6110 271.5001 15.06394411153550
STARLINK-2376           
1 47915U 21021BH  23355.14276898  .00004746  00000+0  33720-3 0  9993
2 47915  53.0539 310.8137 0001459  95.8447 264.2708 15.06410893153625
STARLINK-2378           
1 47916U 21021BJ  23355.11649444  .00011700  00000+0  80278-3 0  9990
2 47916  53.0544 295.9304 0001299 118.2830 241.8290 15.06413094153835
STARLINK-2397           
1 47917U 21021BK  23355.12295142  .00000876  00000+0  77697-4 0  9998
2 47917  53.0549 305.8996 0001631  65.8485 294.2675 15.06399963153693
STARLINK-2398           
1 47918U 21021BL  23355.13032471  .00021370  00000+0  14487-2 0  9992
2 47918  53.0540 305.8748 0001358 114.3982 245.7149 15.06412254153694
STARLINK-2405           
1 47919U 21021BM  23355.18100659  .00002090  00000+0  15918-3 0  9991
2 47919  53.0537 315.6430 0001477  94.8467 265.2691 15.06397345153546
CAS500-1                
1 47932U 21022A   23355.49706910  .00013266  00000+0  61261-3 0  9992
2 47932  97.3878 251.7803 0002286 156.0754 204.0588 15.20323838152708
GRUS-1C                 
1 47933U 21022B   23355.47556162  .00002446  00000+0  22597-3 0  9990
2 47933  97.6455 247.9601 0019651 129.8594 230.4359 14.95363583149909
GRUS-1B                 
1 47934U 21022C   23355.44952209  .00002818  00000+0  25901-3 0  9995
2 47934  97.6454 247.9418 0019869 128.7291 231.5710 14.95448067149890
